NORAD_CAT_ID,OBJECT_NAME,OBJECT_TYPE,EPOCH,MEAN_MOTION,ECCENTRICITY,INCLINATION,RA_OF_ASC_NODE,ARG_OF_PERICENTER,MEAN_ANOMALY,BSTAR,MEAN_MOTION_DOT,MEAN_MOTION_DDOT,TLE_LINE0,TLE_LINE1,TLE_LINE2,SEMIMAJOR_AXIS,PERIOD,APOGEE,PERIGEE,DECAYED
53242.0,STARLINK-4056,PAYLOAD,2024-07-11 20:55:36,15.08845341,0.0001467,53.2184,38.7296,86.5314,273.5846,9.2797e-05,1.189e-05,0.0,0 STARLINK-4056,1 53242U 22086A   24193.87194963  .00001189  00000-0  92797-4 0  9997,2 53242  53.2184  38.7296 0001467  86.5314 273.5846 15.08845341109353,6917.864,95.437,540.744,538.714,0.0
53242.0,STARLINK-4056,PAYLOAD,2024-07-12 12:49:28,15.08837114,0.0001742,53.2196,35.7585,99.8621,260.2568,4.2866e-05,3.94e-06,0.0,0 STARLINK-4056,1 53242U 22086A   24194.53435699  .00000394  00000-0  42866-4 0  9994,2 53242  53.2196  35.7585 0001742  99.8621 260.2568 15.08837114109452,6917.889,95.438,540.959,538.549,0.0
53242.0,STARLINK-4056,PAYLOAD,2024-07-12 20:46:24,15.08838323,0.0001218,53.2184,34.2735,96.5709,263.5422,5.8531e-05,6.44e-06,0.0,0 STARLINK-4056,1 53242U 22086A   24194.86555612  .00000644  00000-0  58531-4 0  9992,2 53242  53.2184  34.2735 0001218  96.5709 263.5422 15.08838323110000,6917.886,95.438,540.593,538.908,0.0
53242.0,STARLINK-4056,PAYLOAD,2024-07-13 12:40:15,15.08840127,0.0001201,53.2183,31.2993,85.0796,275.0333,2.5748e-05,1.22e-06,0.0,0 STARLINK-4056,1 53242U 22086A   24195.52795746  .00000122  00000-0  25748-4 0  9995,2 53242  53.2183  31.2993 0001201  85.0796 275.0333 15.08840127110108,6917.88,95.438,540.576,538.914,0.0
53242.0,STARLINK-4056,PAYLOAD,2024-07-13 20:37:10,15.08844205,0.0001202,53.2182,29.8129,84.9415,275.1714,6.8892e-05,8.09e-06,0.0,0 STARLINK-4056,1 53242U 22086A   24195.85915453  .00000809  00000-0  68892-4 0  9999,2 53242  53.2182  29.8129 0001202  84.9415 275.1714 15.08844205109651,6917.868,95.437,540.564,538.901,0.0
53242.0,STARLINK-4056,PAYLOAD,2024-07-13 22:12:33,15.08849262,0.0001208,53.2181,29.5148,83.7827,276.3303,0.00010741,1.422e-05,0.0,0 STARLINK-4056,1 53242U 22086A   24195.92539041  .00001422  00000-0  10741-3 0  9993,2 53242  53.2181  29.5148 0001208  83.7827 276.3303 15.08849262110161,6917.852,95.437,540.553,538.881,0.0
53242.0,STARLINK-4056,PAYLOAD,2024-07-14 06:09:29,15.08844381,0.0001013,53.2173,28.0267,86.9351,273.1757,6.072e-05,6.79e-06,0.0,0 STARLINK-4056,1 53242U 22086A   24196.25659346  .00000679  00000-0  60720-4 0  9997,2 53242  53.2173  28.0267 0001013  86.9351 273.1757 15.08844381110210,6917.867,95.437,540.433,539.031,0.0
53242.0,STARLINK-4056,PAYLOAD,2024-07-14 20:27:57,15.08848461,0.0001153,53.2176,25.3491,86.1507,273.9617,0.00015552,2.189e-05,0.0,0 STARLINK-4056,1 53242U 22086A   24196.85275078  .00002189  00000-0  15552-3 0  9999,2 53242  53.2176  25.3491 0001153  86.1507 273.9617 15.08848461110308,6917.855,95.437,540.517,538.922,0.0
53242.0,STARLINK-4056,PAYLOAD,2024-07-15 12:21:49,15.08838389,0.000113,53.216,22.3783,92.0117,268.1004,9.4373e-05,1.214e-05,0.0,0 STARLINK-4056,1 53242U 22086A   24197.51515754  .00001214  00000-0  94373-4 0  9998,2 53242  53.2160  22.3783 0001130  92.0117 268.1004 15.08838389109908,6917.885,95.438,540.532,538.969,0.0
53242.0,STARLINK-4056,PAYLOAD,2024-07-15 18:43:22,15.08841422,0.0001154,53.2159,21.1894,88.4897,271.6228,0.00013643,1.884e-05,0.0,0 STARLINK-4056,1 53242U 22086A   24197.78011642  .00001884  00000-0  13643-3 0  9997,2 53242  53.2159  21.1894 0001154  88.4897 271.6228 15.08841422110446,6917.876,95.437,540.539,538.943,0.0
53242.0,STARLINK-4056,PAYLOAD,2024-07-16 12:12:36,15.08840979,0.0001313,53.2157,17.9174,93.7564,266.3578,9.6674e-05,1.251e-05,0.0,0 STARLINK-4056,1 53242U 22086A   24198.50875623  .00001251  00000-0  96674-4 0  9999,2 53242  53.2157  17.9174 0001313  93.7564 266.3578 15.08840979110552,6917.877,95.437,540.651,538.834,0.0
53242.0,STARLINK-4056,PAYLOAD,2024-07-16 18:34:08,15.08849148,0.0001317,53.2178,16.7279,94.9192,265.195,0.00014735,2.059e-05,0.0,0 STARLINK-4056,1 53242U 22086A   24198.77371183  .00002059  00000-0  14735-3 0  9994,2 53242  53.2178  16.7279 0001317  94.9192 265.1950 15.08849148110099,6917.852,95.437,540.629,538.806,0.0
53242.0,STARLINK-4056,PAYLOAD,2024-07-17 12:03:23,15.08837545,0.0001182,53.2163,13.4576,84.2465,275.8661,4.7655e-05,4.71e-06,0.0,0 STARLINK-4056,1 53242U 22086A   24199.50235920  .00000471  00000-0  47655-4 0  9998,2 53242  53.2163  13.4576 0001182  84.2465 275.8661 15.08837545110200,6917.888,95.438,540.571,538.935,0.0
53242.0,STARLINK-4056,PAYLOAD,2024-07-17 18:24:56,15.08837837,0.000126,53.2176,12.2688,95.5967,264.5169,2.7797e-05,1.55e-06,0.0,0 STARLINK-4056,1 53242U 22086A   24199.76731927  .00000155  00000-0  27797-4 0  9998,2 53242  53.2176  12.2688 0001260  95.5967 264.5169 15.08837837110745,6917.887,95.438,540.624,538.88,0.0
53242.0,STARLINK-4056,PAYLOAD,2024-07-18 11:54:10,15.08844586,0.000172,53.2198,9.0007,116.3604,243.7565,-0.00026237,-4.462e-05,0.0,0 STARLINK-4056,1 53242U 22086A   24200.49595737 -.00004462  00000-0 -26237-3 0  9992,2 53242  53.2198   9.0007 0001720 116.3604 243.7565 15.08844586110859,6917.866,95.437,540.921,538.541,0.0
53242.0,STARLINK-4056,PAYLOAD,2024-07-18 18:15:43,15.08843511,0.0001464,53.2192,7.8125,96.1327,263.9832,9.0736e-05,1.157e-05,0.0,0 STARLINK-4056,1 53242U 22086A   24200.76091913  .00001157  00000-0  90736-4 0  9991,2 53242  53.2192   7.8125 0001464  96.1327 263.9832 15.08843511110399,6917.87,95.437,540.747,538.722,0.0
53242.0,STARLINK-4056,PAYLOAD,2024-07-19 10:09:35,15.0883658,0.0001424,53.2188,4.837,109.6631,250.4515,0.00011815,1.593e-05,0.0,0 STARLINK-4056,1 53242U 22086A   24201.42332274  .00001593  00000-0  11815-3 0  9997,2 53242  53.2188   4.8370 0001424 109.6631 250.4515 15.08836580110495,6917.891,95.438,540.741,538.771,0.0
53242.0,STARLINK-4056,PAYLOAD,2024-07-19 14:55:44,15.08832054,0.000133,53.2183,3.9435,101.1769,258.9372,2.7178e-05,1.45e-06,0.0,0 STARLINK-4056,1 53242U 22086A   24201.62204569  .00000145  00000-0  27178-4 0  9996,2 53242  53.2183   3.9435 0001330 101.1769 258.9372 15.08832054111023,6917.905,95.438,540.69,538.85,0.0
53242.0,STARLINK-4056,PAYLOAD,2024-07-19 16:31:08,15.08832512,0.0001263,53.2191,3.646,103.8552,256.258,8.0195e-05,9.88e-06,0.0,0 STARLINK-4056,1 53242U 22086A   24201.68828753  .00000988  00000-0  80195-4 0  9992,2 53242  53.2191   3.6460 0001263 103.8552 256.2580 15.08832512111033,6917.903,95.438,540.642,538.895,0.0
53242.0,STARLINK-4056,PAYLOAD,2024-07-20 14:46:31,15.08843035,0.0001502,53.2193,359.4823,100.0845,260.0317,0.00012976,1.778e-05,0.0,0 STARLINK-4056,1 53242U 22086A   24202.61564278  .00001778  00000-0  12976-3 0  9994,2 53242  53.2193 359.4823 0001502 100.0845 260.0317 15.08843035111178,6917.871,95.437,540.775,538.697,0.0
53242.0,STARLINK-4056,PAYLOAD,2024-07-20 17:57:17,15.08851867,0.0001217,53.2187,358.8872,76.8011,283.3116,0.00014339,1.996e-05,0.0,0 STARLINK-4056,1 53242U 22086A   24202.74811675  .00001996  00000-0  14339-3 0  9991,2 53242  53.2187 358.8872 0001217  76.8011 283.3116 15.08851867110699,6917.844,95.437,540.551,538.867,0.0
53242.0,STARLINK-4056,PAYLOAD,2024-07-21 03:29:36,15.08845478,0.0001036,53.2181,357.1,82.6572,277.4538,2.0642e-05,4.1e-07,0.0,0 STARLINK-4056,1 53242U 22086A   24203.14556090  .00000041  00000-0  20642-4 0  9998,2 53242  53.2181 357.1000 0001036  82.6572 277.4538 15.08845478110754,6917.864,95.437,540.445,539.012,0.0
53242.0,STARLINK-4056,PAYLOAD,2024-07-21 09:51:10,15.08833213,0.0001607,53.2184,355.914,83.018,277.0994,5.2502e-05,5.48e-06,0.0,0 STARLINK-4056,1 53242U 22086A   24203.41053287  .00000548  00000-0  52502-4 0  9990,2 53242  53.2184 355.9140 0001607  83.0180 277.0994 15.08833213110792,6917.901,95.438,540.878,538.654,0.0
53242.0,STARLINK-4056,PAYLOAD,2024-07-21 14:37:19,15.08833828,0.0001757,53.2185,355.0217,82.4388,277.6803,5.2317e-05,5.45e-06,0.0,0 STARLINK-4056,1 53242U 22086A   24203.60925409  .00000545  00000-0  52317-4 0  9996,2 53242  53.2185 355.0217 0001757  82.4388 277.6803 15.08833828111325,6917.899,95.438,540.98,538.549,0.0
53242.0,STARLINK-4056,PAYLOAD,2024-07-21 17:48:05,15.08840137,0.0001374,53.219,354.4267,79.7921,280.3226,9.8508e-05,1.28e-05,0.0,0 STARLINK-4056,1 53242U 22086A   24203.74172881  .00001280  00000-0  98508-4 0  9998,2 53242  53.2190 354.4267 0001374  79.7921 280.3226 15.08840137111349,6917.88,95.438,540.695,538.794,0.0
53242.0,STARLINK-4056,PAYLOAD,2024-07-22 09:41:56,15.08842317,0.0001516,53.2186,351.4525,83.0363,277.0801,5.3727e-05,5.67e-06,0.0,0 STARLINK-4056,1 53242U 22086A   24204.40412916  .00000567  00000-0  53727-4 0  9999,2 53242  53.2186 351.4525 0001516  83.0363 277.0801 15.08842317111449,6917.873,95.437,540.787,538.69,0.0
53242.0,STARLINK-4056,PAYLOAD,2024-07-23 15:54:16,15.0882621,0.0001415,53.2188,345.8023,88.8285,271.2869,0.00051569,7.926e-05,0.0,0 STARLINK-4056,1 53242U 22086A   24205.66269331  .00007926  00000-0  51569-3 0  9996,2 53242  53.2188 345.8023 0001415  88.8285 271.2869 15.08826210111135,6917.923,95.438,540.766,538.809,0.0
53242.0,STARLINK-4056,PAYLOAD,2024-07-24 18:55:49,15.08839534,0.0001432,53.2182,340.7483,78.6118,281.5035,3.9365e-05,3.39e-06,0.0,0 STARLINK-4056,1 53242U 22086A   24206.78877026  .00000339  00000-0  39365-4 0  9998,2 53242  53.2182 340.7483 0001432  78.6118 281.5035 15.08839534111305,6917.882,95.438,540.737,538.756,0.0
53242.0,STARLINK-4056,PAYLOAD,2024-07-25 09:14:17,15.08840442,0.0001457,53.2187,338.0719,79.25,280.8656,4.1122e-05,3.67e-06,0.0,0 STARLINK-4056,1 53242U 22086A   24207.38493039  .00000367  00000-0  41122-4 0  9998,2 53242  53.2187 338.0719 0001457  79.2500 280.8656 15.08840442111896,6917.879,95.438,540.752,538.736,0.0
53242.0,STARLINK-4056,PAYLOAD,2024-07-26 01:08:08,15.0885007,0.0001491,53.2199,335.1,87.6137,272.5026,0.0001157,1.554e-05,0.0,0 STARLINK-4056,1 53242U 22086A   24208.04732183  .00001554  00000-0  11570-3 0  9990,2 53242  53.2199 335.1000 0001491  87.6137 272.5026 15.08850070111490,6917.85,95.437,540.746,538.683,0.0
